[{"OBJECT_NAME":"STARLINK-3788","OBJECT_ID":"2022-041L","EPOCH":"2026-03-09T11:47:14.859744","MEAN_MOTION":15.08833649,"ECCENTRICITY":0.00014418,"INCLINATION":53.2168,"RA_OF_ASC_NODE":110.0144,"ARG_OF_PERICENTER":67.4347,"MEAN_ANOMALY":292.6798,"EPHEMERIS_TYPE":0,"CLASSIFICATION_TYPE":"U","NORAD_CAT_ID":52271,"ELEMENT_SET_NO":999,"REV_AT_EPOCH":21433,"BSTAR":0.00010486247,"MEAN_MOTION_DOT":1.381e-5,"MEAN_MOTION_DDOT":0},{"OBJECT_NAME":"UNKNOWN","OBJECT_ID":"","EPOCH":"2026-03-09T16:30:44.564256","MEAN_MOTION":14.36564228,"ECCENTRICITY":0.0359571,"INCLINATION":65.6735,"RA_OF_ASC_NODE":282.8329,"ARG_OF_PERICENTER":31.2915,"MEAN_ANOMALY":28.2093,"EPHEMERIS_TYPE":0,"CLASSIFICATION_TYPE":"U","NORAD_CAT_ID":87764,"ELEMENT_SET_NO":999,"REV_AT_EPOCH":63160,"BSTAR":0.0015438,"MEAN_MOTION_DOT":9.503e-5,"MEAN_MOTION_DDOT":0}]
